[{"OBJECT_NAME":"STARLINK-31554","OBJECT_ID":"2024-045T","EPOCH":"2026-03-09T10:58:10.623360","MEAN_MOTION":15.27573123,"ECCENTRICITY":0.00014722,"INCLINATION":43.0054,"RA_OF_ASC_NODE":94.0421,"ARG_OF_PERICENTER":276.0564,"MEAN_ANOMALY":84.012,"EPHEMERIS_TYPE":0,"CLASSIFICATION_TYPE":"U","NORAD_CAT_ID":59195,"ELEMENT_SET_NO":999,"REV_AT_EPOCH":11312,"BSTAR":-2.7212081e-5,"MEAN_MOTION_DOT":-1.011e-5,"MEAN_MOTION_DDOT":0},{"OBJECT_NAME":"TEVEL2-3","OBJECT_ID":"2025-052J","EPOCH":"2026-03-09T15:29:22.754400","MEAN_MOTION":15.30377031,"ECCENTRICITY":0.0004761,"INCLINATION":97.3994,"RA_OF_ASC_NODE":324.7775,"ARG_OF_PERICENTER":105.7353,"MEAN_ANOMALY":254.4413,"EPHEMERIS_TYPE":0,"CLASSIFICATION_TYPE":"U","NORAD_CAT_ID":63218,"ELEMENT_SET_NO":999,"REV_AT_EPOCH":5485,"BSTAR":0.00069446,"MEAN_MOTION_DOT":0.00020365,"MEAN_MOTION_DDOT":0}]
